NORAD_CAT_ID,OBJECT_NAME,OBJECT_TYPE,EPOCH,MEAN_MOTION,ECCENTRICITY,INCLINATION,RA_OF_ASC_NODE,ARG_OF_PERICENTER,MEAN_ANOMALY,BSTAR,MEAN_MOTION_DOT,MEAN_MOTION_DDOT,TLE_LINE0,TLE_LINE1,TLE_LINE2,SEMIMAJOR_AXIS,PERIOD,APOGEE,PERIGEE,DECAYED
51737.0,STARLINK-3509,PAYLOAD,2022-12-26 20:23:36,15.08846965,0.0002921999999999,53.216,166.2494,49.0851,311.0394,0.00010888,1.445e-05,0.0,0 STARLINK-3509,1 51737U 22016Z   22360.84973234  .00001445  00000-0  10888-3 0  9999,2 51737  53.2160 166.2494 0002922  49.0851 311.0394 15.08846965 48168,6917.859,95.437,541.745,537.703,0.0
51737.0,STARLINK-3509,PAYLOAD,2022-12-27 10:42:04,15.08850598,0.0002918999999999,53.2162,163.5729,50.514,309.611,0.00026104,3.87e-05,0.0,0 STARLINK-3509,1 51737U 22016Z   22361.44588983  .00003870  00000-0  26104-3 0  9991,2 51737  53.2162 163.5729 0002919  50.5140 309.6110 15.08850598 47193,6917.848000000001,95.437,541.732,537.694,0.0
51737.0,STARLINK-3509,PAYLOAD,2022-12-27 17:03:37,15.08857892,0.0002914,53.2161,162.3834,50.8379,309.2871,0.00035323,5.341e-05,0.0,0 STARLINK-3509,1 51737U 22016Z   22361.71084531  .00005341  00000-0  35323-3 0  9999,2 51737  53.2161 162.3834 0002914  50.8379 309.2871 15.08857892 47237,6917.826,95.436,541.707,537.675,0.0
51737.0,STARLINK-3509,PAYLOAD,2022-12-27 20:14:23,15.08860803,0.0002918,53.2158,161.7889,50.5845,309.5405,0.00036029,5.454e-05,0.0,0 STARLINK-3509,1 51737U 22016Z   22361.84332373  .00005454  00000-0  36029-3 0  9992,2 51737  53.2158 161.7889 0002918  50.5845 309.5405 15.08860803 48317,6917.816999999999,95.436,541.7,537.663,0.0
51737.0,STARLINK-3509,PAYLOAD,2022-12-28 12:08:14,15.08843646,0.0002804,53.216,158.8143,51.5428,308.5815,4.8007e-05,4.76e-06,0.0,0 STARLINK-3509,1 51737U 22016Z   22362.50572892  .00000476  00000-0  48007-4 0  9997,2 51737  53.2160 158.8143 0002804  51.5428 308.5815 15.08843646 47355,6917.869000000002,95.437,541.674,537.794,0.0
51737.0,STARLINK-3509,PAYLOAD,2022-12-29 05:37:29,15.08834798,0.0002828,53.2164,155.5438,50.1414,309.9826,-9.3863e-05,-1.782e-05,0.0,0 STARLINK-3509,1 51737U 22016Z   22363.23437422 -.00001782  00000-0 -93863-4 0  9990,2 51737  53.2164 155.5438 0002828  50.1414 309.9826 15.08834798 48521,6917.896,95.438,541.7180000000002,537.805,0.0
51737.0,STARLINK-3509,PAYLOAD,2022-12-29 11:59:02,15.08843047,0.0002766,53.2169,154.3537,51.6704,308.4537,1.0836e-05,-1.16e-06,0.0,0 STARLINK-3509,1 51737U 22016Z   22363.49933149 -.00000116  00000-0  10836-4 0  9993,2 51737  53.2169 154.3537 0002766  51.6704 308.4537 15.08843047 47509,6917.871,95.437,541.65,537.823,0.0
51737.0,STARLINK-3509,PAYLOAD,2022-12-29 19:55:57,15.08849156,0.0002774999999999,53.2169,152.8676,50.85,309.2738,1.5384e-05,-4.4e-07,0.0,0 STARLINK-3509,1 51737U 22016Z   22363.83052684 -.00000044  00000-0  15384-4 0  9990,2 51737  53.2169 152.8676 0002775  50.8500 309.2738 15.08849156 48613,6917.852,95.437,541.637,537.798,0.0
51737.0,STARLINK-3509,PAYLOAD,2022-12-30 13:25:12,15.08841277,0.0002953,53.2177,149.5978,44.034,316.0887,7.269e-05,8.69e-06,0.0,0 STARLINK-3509,1 51737U 22016Z   22364.55917006  .00000869  00000-0  72690-4 0  9995,2 51737  53.2177 149.5978 0002953  44.0340 316.0887 15.08841277 48724,6917.876,95.437,541.784,537.6990000000002,0.0
51737.0,STARLINK-3509,PAYLOAD,2022-12-31 10:05:12,15.08849514,0.0002856,53.2172,145.7313,51.0094,309.1152,0.00015825,2.232e-05,0.0,0 STARLINK-3509,1 51737U 22016Z   22365.42028119  .00002232  00000-0  15825-3 0  9992,2 51737  53.2172 145.7313 0002856  51.0094 309.1152 15.08849514 48850,6917.851,95.437,541.692,537.741,0.0
51737.0,STARLINK-3509,PAYLOAD,2022-12-31 16:26:44,15.08848342,0.000285,53.2174,144.5416,51.342,308.7827,0.00013832,1.914e-05,0.0,0 STARLINK-3509,1 51737U 22016Z   22365.68524126  .00001914  00000-0  13832-3 0  9991,2 51737  53.2174 144.5416 0002850  51.3420 308.7827 15.08848342 47832,6917.855,95.437,541.691,537.748,0.0
51737.0,STARLINK-3509,PAYLOAD,2023-01-01 08:20:37,15.08834472,0.0003093,53.2164,141.5698,42.5805,317.5426,-6.512899999999999e-05,-1.325e-05,0.0,0 STARLINK-3509,1 51737U 22016Z   23001.34765485 -.00001325  00000-0 -65129-4 0  9992,2 51737  53.2164 141.5698 0003093  42.5805 317.5426 15.08834472 48999,6917.897,95.438,541.9019999999998,537.623,0.0
51737.0,STARLINK-3509,PAYLOAD,2023-01-01 09:56:01,15.08826268,0.0002996,53.2173,141.2713,44.0692,316.0538,-0.00011724,-2.153e-05,0.0,0 STARLINK-3509,1 51737U 22016Z   23001.41390113 -.00002153  00000-0 -11724-3 0  9993,2 51737  53.2173 141.2713 0002996  44.0692 316.0538 15.08826268 49001,6917.922,95.438,541.86,537.715,0.0
51737.0,STARLINK-3509,PAYLOAD,2023-01-01 16:17:33,15.08823087,0.0003021,53.2172,140.0814,46.2755,313.8487,-0.00014046,-2.523e-05,0.0,0 STARLINK-3509,1 51737U 22016Z   23001.67886558 -.00002523  00000-0 -14046-3 0  9995,2 51737  53.2172 140.0814 0003021  46.2755 313.8487 15.08823087 47982,6917.932,95.439,541.887,537.707,0.0
51737.0,STARLINK-3509,PAYLOAD,2023-01-02 01:49:52,15.08829584,0.0002714,53.2175,138.2972,45.3235,314.7978,-8.437e-05,-1.631e-05,0.0,0 STARLINK-3509,1 51737U 22016Z   23002.07630284 -.00001631  00000-0 -84370-4 0  9990,2 51737  53.2175 138.2972 0002714  45.3235 314.7978 15.08829584 49109,6917.9119999999975,95.438,541.655,537.9,0.0
51737.0,STARLINK-3509,PAYLOAD,2023-01-02 17:43:43,15.08839724,0.0002738,53.2175,135.3235,45.8627,314.259,2.0217e-05,3.3e-07,0.0,0 STARLINK-3509,1 51737U 22016Z   23002.73869631  .00000033  00000-0  20217-4 0  9996,2 51737  53.2175 135.3235 0002738  45.8627 314.2590 15.08839724 49208,6917.880999999999,95.438,541.64,537.852,0.0
51737.0,STARLINK-3509,PAYLOAD,2023-01-03 11:12:58,15.08829365,0.0002692,53.2174,132.0527,44.4935,315.6273,0.00020902,3.039e-05,0.0,0 STARLINK-3509,1 51737U 22016Z   23003.46734194  .00003039  00000-0  20902-3 0  9991,2 51737  53.2174 132.0527 0002692  44.4935 315.6273 15.08829365 49316,6917.913000000001,95.438,541.64,537.9159999999998,0.0
51737.0,STARLINK-3509,PAYLOAD,2023-01-04 14:14:31,15.08845707,0.0002636,53.2171,127.0022,41.7872,318.3321,0.00013679,1.89e-05,0.0,0 STARLINK-3509,1 51737U 22016Z   23004.59341885  .00001890  00000-0  13679-3 0  9993,2 51737  53.2171 127.0022 0002636  41.7872 318.3321 15.08845707 49485,6917.863,95.437,541.5509999999998,537.904,0.0
51737.0,STARLINK-3509,PAYLOAD,2023-01-04 15:49:53,15.0885579,0.0002474,53.2169,126.7009,43.5153,316.6034,0.00016225,2.296e-05,0.0,0 STARLINK-3509,1 51737U 22016Z   23004.65965114  .00002296  00000-0  16225-3 0  9998,2 51737  53.2169 126.7009 0002474  43.5153 316.6034 15.08855790 49491,6917.831999999999,95.437,541.409,537.986,0.0
51737.0,STARLINK-3509,PAYLOAD,2023-01-05 14:05:16,15.08858937,0.0003081,53.2162,122.5382,44.0191,316.1046,0.00021479,3.133e-05,0.0,0 STARLINK-3509,1 51737U 22016Z   23005.58700132  .00003133  00000-0  21479-3 0  9996,2 51737  53.2162 122.5382 0003081  44.0191 316.1046 15.08858937 48577,6917.823,95.436,541.819,537.556,0.0
51737.0,STARLINK-3509,PAYLOAD,2023-01-05 17:16:03,15.08856298,0.0002331999999999,53.2188,121.9432,38.0695,322.0462,0.00018504,2.659e-05,0.0,0 STARLINK-3509,1 51737U 22016Z   23005.71948020  .00002659  00000-0  18504-3 0  9998,2 51737  53.2188 121.9432 0002332  38.0695 322.0462 15.08856298 48592,6917.831,95.437,541.309,538.082,0.0
51737.0,STARLINK-3509,PAYLOAD,2023-01-06 13:56:05,15.08830537,0.0002391,53.2184,118.0787,30.7983,329.3149,-0.00018151,-3.175e-05,0.0,0 STARLINK-3509,1 51737U 22016Z   23006.58062432 -.00003175  00000-0 -18151-3 0  9992,2 51737  53.2184 118.0787 0002391  30.7983 329.3149 15.08830537 49784,6917.9090000000015,95.438,541.428,538.12,0.0
51737.0,STARLINK-3509,PAYLOAD,2023-01-07 07:25:18,15.08850094,0.0002554,53.216,114.8081,36.4684,323.6481,-3.037799999999999e-06,-3.37e-06,0.0,0 STARLINK-3509,1 51737U 22016Z   23007.30924605 -.00000337  00000-0 -30378-5 0  9996,2 51737  53.2160 114.8081 0002554  36.4684 323.6481 15.08850094 49899,6917.85,95.437,541.481,537.948,0.0
51737.0,STARLINK-3509,PAYLOAD,2023-01-07 16:57:38,15.08833091,0.0002493,53.2186,113.023,32.2047,327.9097,-0.00014349,-2.571e-05,0.0,0 STARLINK-3509,1 51737U 22016Z   23007.70670034 -.00002571  00000-0 -14349-3 0  9994,2 51737  53.2186 113.0230 0002493  32.2047 327.9097 15.08833091 49958,6917.901999999999,95.438,541.491,538.0419999999998,0.0
51737.0,STARLINK-3509,PAYLOAD,2023-01-07 23:19:12,15.08826174,0.0002537,53.2176,111.8338,34.1341,325.9814,-0.00020389,-3.531e-05,0.0,0 STARLINK-3509,1 51737U 22016Z   23007.97166833 -.00003531  00000-0 -20389-3 0  9998,2 51737  53.2176 111.8338 0002537  34.1341 325.9814 15.08826174 49992,6917.923000000002,95.438,541.543,538.033,0.0
51737.0,STARLINK-3509,PAYLOAD,2023-01-08 13:37:40,15.08819495,0.0002382,53.2171,109.1564,13.7566,346.349,9.6803e-05,1.252e-05,0.0,0 STARLINK-3509,1 51737U 22016Z   23008.56782977  .00001252  00000-0  96803-4 0  9998,2 51737  53.2171 109.1564 0002382  13.7566 346.3490 15.08819495 49027,6917.943,95.439,541.456,538.16,0.0
51737.0,STARLINK-3509,PAYLOAD,2023-01-08 23:09:58,15.08839168,0.0002548,53.2176,107.3713,28.5836,331.5295,0.00017633,2.519e-05,0.0,0 STARLINK-3509,1 51737U 22016Z   23008.96525867  .00002519  00000-0  17633-3 0  9995,2 51737  53.2176 107.3713 0002548  28.5836 331.5295 15.08839168 50149,6917.883000000002,95.438,541.511,537.985,0.0
51737.0,STARLINK-3509,PAYLOAD,2023-01-09 13:28:26,15.08834068,0.0002333,53.2171,104.6989,29.6027,330.5097,0.00019463,2.81e-05,0.0,0 STARLINK-3509,1 51737U 22016Z   23009.56142302  .00002810  00000-0  19463-3 0  9998,2 51737  53.2171 104.6989 0002333  29.6027 330.5097 15.08834068 49179,6917.899,95.438,541.377,538.15,0.0
51737.0,STARLINK-3509,PAYLOAD,2023-01-09 15:03:49,15.08836537,0.0002348,53.2164,104.4005,34.6332,325.4813,0.00021919,3.202e-05,0.0,0 STARLINK-3509,1 51737U 22016Z   23009.62766096  .00003202  00000-0  21919-3 0  9992,2 51737  53.2164 104.4005 0002348  34.6332 325.4813 15.08836537 49182,6917.891,95.438,541.38,538.132,0.0
